CCSDS_OEM_VERS = 2.0  
COMMENT Orbit data are consistent with planetary ephemerides INPOP10E                                                                                                                                                                                          
COMMENT GAIA_FINALLY_RECONSTRUCTED_STOP = 2013-12-20T09:51:19.84560184                                                                                                                                                                                         
COMMENT GAIA_RECONSTRUCTED_STOP = 2013-12-20T09:51:19.84560184                                                                                                                                                                                                 
CREATION_DATE  = 2013-10-31T11:54:15
ORIGINATOR     = ESOC                                    
 
 
  

META_START
OBJECT_NAME          = GAIA                                    
OBJECT_ID            = 9999-999X                               
CENTER_NAME          = EARTH                   
REF_FRAME            = ICRF    
TIME_SYSTEM          = TDB
START_TIME           = 2013-12-20T09:51:19.84560184            
STOP_TIME            = 2013-12-21T13:24:54.82404853            
META_STOP
 
2019-03-17T14:32:22.90415703 -0.1425066133636733E+07 -0.2285850068505082E+06  0.7174344416903485E+05 -0.1119219794057147E-01 -0.3575452952744853E+00 -0.1306113451507336E+00  0.1024340651345639E-06  0.2320047068131972E-07 -0.2039076407497328E-07
2019-03-17T22:40:38.55843230 -0.1425349783931258E+07 -0.2390491956752340E+06  0.6790846193719970E+05 -0.8163223941454212E-02 -0.3568265447843312E+00 -0.1311970413368199E+00  0.1043269591000053E-06  0.2590720565364597E-07 -0.1957642473016243E-07
2019-03-18T06:48:54.21270757 -0.1425543909352456E+07 -0.2494911338116250E+06  0.6405668616716736E+05 -0.5081212253692741E-02 -0.3560251459812509E+00 -0.1317573104377595E+00  0.1060491158676303E-06  0.2884030378662240E-07 -0.1865534137870478E-07
2019-03-18T14:57:09.86698283 -0.1425647034357632E+07 -0.2599083052457246E+06  0.6018890708743612E+05 -0.1951672346900253E-02 -0.3551347154608923E+00 -0.1322890770889578E+00  0.1075660075339046E-06  0.3198194433648162E-07 -0.1763140230893030E-07
2019-03-18T23:12:30.09595774 -0.1425657332156587E+07 -0.2704483750827892E+06  0.5624962253510582E+05  0.1265107195868136E-02 -0.3541344674703255E+00 -0.1327964175998478E+00  0.1088610163718903E-06  0.3535849782196281E-07 -0.1649372466849335E-07
2019-03-19T07:27:50.32493272 -0.1425571494339263E+07 -0.2809572011325463E+06  0.5229577592163184E+05  0.4516324639325716E-02 -0.3530313881554509E+00 -0.1332685683502755E+00  0.1098783913006808E-06  0.3889660419613367E-07 -0.1526493897757423E-07
2019-03-19T15:43:10.55390763 -0.1425388624364984E+07 -0.2914316607157875E+06  0.4832845183894254E+05  0.7793295168827154E-02 -0.3518211700789781E+00 -0.1337029748409777E+00  0.1105896795665412E-06  0.4256231948186208E-07 -0.1395569235645768E-07
2019-03-19T23:58:30.78288253 -0.1425108095699995E+07 -0.3018685187115828E+06  0.4434880581254652E+05  0.1108655769500195E-01 -0.3505005724002644E+00 -0.1340974273436049E+00  0.1109712723786922E-06  0.4631798834935051E-07 -0.1257848638004632E-07
2019-03-20T08:13:51.01185752 -0.1424729572598168E+07 -0.3122644607313543E+06  0.4035805328591824E+05  0.1438603385748360E-01 -0.3490675143036060E+00 -0.1344501108420462E+00  0.1110053877761272E-06  0.5012341532863035E-07 -0.1114731280287540E-07
2019-03-20T16:29:11.24083242 -0.1424253025750473E+07 -0.3226161285236927E+06  0.3635745729471793E+05  0.1768121328902467E-01 -0.3475211308131538E+00 -0.1347596428452168E+00  0.1106808451658916E-06  0.5393721043909347E-07 -0.9677206624187813E-08
2019-03-21T00:44:31.46980733 -0.1423678742123267E+07 -0.3329201564291728E+06  0.3234831522312340E+05  0.2096135808689714E-01 -0.3458617872752502E+00 -0.1350250970972043E+00  0.1099935732500063E-06  0.5771820696430346E-07 -0.8183750096987716E-08
2019-03-21T08:59:51.69878223 -0.1423007328539630E+07 -0.3431732076406516E+06  0.2833194507760635E+05  0.2421571786614100E-01 -0.3440910519907450E+00 -0.1352460122923859E+00  0.1089468081861979E-06  0.6142684018617608E-07 -0.6682566142915941E-08
2019-03-21T17:15:11.92775722 -0.1422239708831140E+07 -0.3533720090593135E+06  0.2430967172275396E+05  0.2743374570243377E-01 -0.3422116297987489E+00 -0.1354223860445837E+00  0.1075509539603045E-06  0.6502638038661643E-07 -0.5188838518018795E-08
2019-03-22T01:30:32.15673212 -0.1421377114683721E+07 -0.3635133836639654E+06  0.2028281350073944E+05  0.3060530484722433E-01 -0.3402272623129220E+00 -0.1355546553888656E+00  0.1058231017172809E-06  0.6848393258196734E-07 -0.3716889737256489E-08
2019-03-22T09:45:52.38570703 -0.1420421070599823E+07 -0.3735942795144591E+06  0.1625266960563076E+05  0.3372085639235033E-01 -0.3381426025935270E+00 -0.1356436658717515E+00  0.1037862344971769E-06  0.7177115040180954E-07 -0.2279837759363528E-08
2019-03-22T18:01:12.61468193 -0.1419373373675747E+07 -0.3836117947592998E+06  0.1222050851518286E+05  0.3677161921473013E-01 -0.3359630730814905E+00 -0.1356906317423579E+00  0.1014681697470063E-06  0.7486464919171033E-07 -0.8893412503240472E-09
2019-03-23T02:16:32.84365692 -0.1418236069122581E+07 -0.3935631982818457E+06  0.8187557705009209E+04  0.3974969554858909E-01 -0.3336947155716946E+00 -0.1356970899022125E+00  0.9890031820509603E-07  0.7774613467475062E-07  0.4445663081269183E-09
2019-03-23T10:31:53.07263182 -0.1417011422619282E+07 -0.4034459458681679E+06  0.4154994792194816E+04  0.4264815817358890E-01 -0.3313440410821484E+00 -0.1356648501729815E+00  0.9611635805632032E-07  0.8040228873192216E-07  0.1713559953211645E-08
2019-03-23T18:47:13.30160673 -0.1415701890661638E+07 -0.4132576919933154E+06  0.1239401826303038E+03  0.4546109817317861E-01 -0.3289178860520423E+00 -0.1355959441943543E+00  0.9315092512545920E-07  0.8282446687542962E-07  0.2911033860867641E-08
2019-03-24T03:02:33.53058171 -0.1414310090057718E+07 -0.4229962974891769E+06 -0.3904548767624848E+04  0.4818363513712171E-01 -0.3264232796769748E+00 -0.1354925749504664E+00  0.9003840905934361E-07  0.8500826103385406E-07  0.4032050307619834E-08
2019-03-24T11:27:25.30242149 -0.1412809712276327E+07 -0.4328449233319815E+06 -0.8006843658413429E+04  0.5086149285392689E-01 -0.3238176182383471E+00 -0.1353541635224861E+00  0.8674897149693035E-07  0.8698804351829502E-07  0.5092463655770593E-08
2019-03-24T19:52:17.07426136 -0.1411229740912506E+07 -0.4426137484910663E+06 -0.1210447225069443E+05  0.5343833229432172E-01 -0.3211557178637641E+00 -0.1351849138839967E+00  0.8337397389148399E-07  0.8872209683434517E-07  0.6067906199929250E-08
2019-03-25T04:17:08.84610114 -0.1409573270541951E+07 -0.4523011813998561E+06 -0.1619653953909694E+05  0.5591202345037814E-01 -0.3184449467594806E+00 -0.1349874136403343E+00  0.7994338744897585E-07  0.9021580449746192E-07  0.6957682691748895E-08
2019-03-25T12:42:00.61794100 -0.1407843446996976E+07 -0.4619058508674054E+06 -0.2028222903704776E+05  0.5828129575142302E-01 -0.3156924761078347E+00 -0.1347642535649231E+00  0.7648394207151542E-07  0.9147669102909342E-07  0.7762243924422683E-08
2019-03-25T21:06:52.38978078 -0.1406043442850682E+07 -0.4714265992183891E+06 -0.2436080237944108E+05  0.6054563707838896E-01 -0.3129052241296196E+00 -0.1345179961105983E+00  0.7301897508068279E-07  0.9251384054727318E-07  0.8482973339410260E-08
2019-03-26T05:31:44.16162065 -0.1404176436000353E+07 -0.4808624739979231E+06 -0.2843159806935971E+05  0.6270519103500569E-01 -0.3100898169745181E+00 -0.1342511503631978E+00  0.6956846109826862E-07  0.9333736995264375E-07  0.9121976742807276E-08
2019-03-26T13:56:35.93346051 -0.1402245591326109E+07 -0.4902127187237245E+06 -0.3249402956095715E+05  0.6476065732862847E-01 -0.3072525646220141E+00 -0.1339661532034381E+00  0.6614917932780995E-07  0.9395796639049406E-07  0.9681883982373135E-08
2019-03-26T22:21:27.70530029 -0.1400254045274000E+07 -0.4994767631097728E+06 -0.3654758286011483E+05  0.6671319879588979E-01 -0.3043994497171157E+00 -0.1336653562068243E+00  0.6277497807181601E-07  0.9438649557699828E-07  0.1016566931507495E-07
2019-03-27T06:46:19.47714015 -0.1398204893123909E+07 -0.5086542131202650E+06 -0.4059181380726550E+05  0.6856435741629531E-01 -0.3015361271621297E+00 -0.1333510176443076E+00  0.5945709923272652E-07  0.9463368347440515E-07  0.1057649484422130E-07
2019-03-27T15:11:11.24897994 -0.1396101178647073E+07 -0.5177448411464154E+06 -0.4462634518588959E+05  0.7031598067192103E-01 -0.2986679322852120E+00 -0.1330252988463979E+00  0.5620453221327344E-07  0.9470986849099942E-07  0.1091757920234244E-07
2019-03-27T23:36:03.02081980 -0.1393945885829731E+07 -0.5267485765340904E+06 -0.4865086377724061E+05  0.7197015881175682E-01 -0.2957998954927046E+00 -0.1326902641539335E+00  0.5302437582457897E-07  0.9462481963947972E-07  0.1119209195567734E-07
2019-03-28T08:00:54.79265966 -0.1391741932332149E+07 -0.5356654966289335E+06 -0.5266511745809854E+05  0.7352917297037052E-01 -0.2929367614876998E+00 -0.1323478836883072E+00  0.4992219161320643E-07  0.9438761542808240E-07  0.1140307282749596E-07
2019-03-28T16:25:46.56449944 -0.1389492164360040E+07 -0.5444958184512034E+06 -0.5666891241599784E+05  0.7499545368351190E-01 -0.2900830113502765E+00 -0.1320000382171685E+00  0.4690233583887854E-07  0.9400657557380698E-07  0.1155337379456039E-07
2019-03-29T00:50:38.33633930 -0.1387199352644086E+07 -0.5532398910635563E+06 -0.6066211053513575E+05  0.7637154907161360E-01 -0.2872428859907971E+00 -0.1316485254564977E+00  0.4396826383267692E-07  0.9348923716943962E-07  0.1164562166874609E-07
2019-03-29T09:15:30.10817909 -0.1384866189248322E+07 -0.5618981886538998E+06 -0.6464462698747306E+05  0.7766010177997894E-01 -0.2844204097205478E+00 -0.1312950672276181E+00  0.4112280365439306E-07  0.9284236887102488E-07  0.1168219861938719E-07
